#aV2023  9 16  0  0  0.00000000     288 DD+AD WGS84 FIT  NGA
## 2279 518400.00000000   300.00000000 60203 0.0000000000000
+   32     1  2  3  4  5  6  7  8  9 10 11 12 13 14 15 16 17
+         18 19 20 21 22 23 24 25 26 27 28 29 30 31 32  0  0
+          0  0  0  0  0  0  0  0  0  0  0  0  0  0  0  0  0
+          0  0  0  0  0  0  0  0  0  0  0  0  0  0  0  0  0
+          0  0  0  0  0  0  0  0  0  0  0  0  0  0  0  0  0
++         2  2  2  2  2  2  2  2  2  2  2  2  2  2  2  2  2
++         2  2  2  2  2  2  2  2  2  2  2  2  2  2  2  0  0
++         0  0  0  0  0  0  0  0  0  0  0  0  0  0  0  0  0
++         0  0  0  0  0  0  0  0  0  0  0  0  0  0  0  0  0
++         0  0  0  0  0  0  0  0  0  0  0  0  0  0  0  0  0
%c cc cc ccc ccc cccc cccc cccc cccc ccccc ccccc ccccc ccccc
%c cc cc ccc ccc cccc cccc cccc cccc ccccc ccccc ccccc ccccc
%f  0.0000000  0.000000000  0.00000000000  0.000000000000000
%f  0.0000000  0.000000000  0.00000000000  0.000000000000000
%i    0    0    0    0      0      0      0      0         0
%i    0    0    0    0      0      0      0      0         0
/*      NGA, ST. LOUIS,MO.                                  
/*   EPHEMERIS COMPUTED FROM 2 DAYS OF DATA                 
/*   EPOCHA v8 SMOOTHER                                     
/*   G2139 IERS2010 SATIGS SATAPC                           
*  2023  9 16 15 50  0.00000000
P  1 -12236.422816  20738.963968 -11154.712361    165.358257                    
V  1 -11417.899623   7817.103879  28242.655868     -0.008740                    
P  2 -16346.133344  20576.182417  -2639.652576   -553.241145                    
V  2  -4727.140464   1070.434174  31793.198756      0.044873                    
P  3  -3866.960988  14352.467980 -22158.235164   -131.945819                    
V  3 -26480.393395  -8203.574052   -590.503227      0.207828                    
P  4  -1607.081783  24862.186755  -9017.964700    157.752144                    
V  4  -4712.379411 -10802.232045 -29033.228080      0.111473                    
P  5  19034.717149  -7163.065450  16952.438019   -142.951584                    
V  5  20726.402978   7032.181172 -19987.785112     -0.014424                    
P  6  18250.878569    504.935013 -19261.990171    549.128715                    
V  6 -17514.873615  17139.010560 -16004.267219     -0.068797                    
P  7   3831.678334  16612.066151  20726.243176     65.623173                    
V  7 -19436.967998  16413.928550 -10264.443776     -0.104737                    
P  8  -7960.145407  18165.502785  17394.284276   -142.562914                    
V  8  -7553.006903 -21184.332862  18979.942496     -0.018889                    
P  9   6067.339110  25825.485837   -622.571724    -58.100794                    
V  9  -3067.384454     62.878449 -31685.060257      0.103525                    
P 10 -23600.800942 -11262.815489   5735.700717    -53.630342                    
V 10   7203.736365    282.652628  30868.554919     -0.014488                    
P 11  22509.163501 -10455.465680  -9371.396269   -371.658982                    
V 11  -7561.741210   9544.485155 -28817.136073     -0.183127                    
P 12   8571.054979 -12929.393615 -21827.510703   -425.440324                    
V 12  25118.882641  10079.752300   4015.215575     -0.043255                    
P 13  13306.705288  -9740.726395  20576.738914    573.243104                    
V 13   3222.110174  26418.828976  10533.342842      0.045591                    
P 14  21351.537242  13600.831656   8337.860937    186.707394                    
V 14 -10885.712403   -691.564737  28917.009102      0.113615                    
P 15   5195.448995 -19884.959494  16212.789939     78.102117                    
V 15  10275.194904  19262.092494  19988.305859      0.036897                    
P 16 -22780.488462    983.585783  13681.004743   -453.281450                    
V 16 -15684.522893  -8443.862826 -24504.497769      0.055777                    
P 17  12801.952445  17963.479672 -14275.050845    723.756053                    
V 17   1033.394690  18986.245290  24199.841638      0.001821                    
P 18  -5058.691107 -14923.267954  21356.218988   -419.253773                    
V 18  20621.615503 -17592.472473  -7583.936643     -0.124931                    
P 19  14836.547080  10252.642088 -19813.175714    372.325598                    
V 19   2028.865046  24514.754939  14020.394059      0.051911                    
P 20  25327.756843  -2093.446205   7412.551299    411.576893                    
V 20   8950.801757   4298.998805 -29707.042389     -0.019521                    
P 21 -17497.628678  19302.535007     57.538941    148.783178                    
V 21  -3019.057844  -1989.958889  32395.425477     -0.007604                    
P 22  23914.902492  11126.284747   1721.449684    120.651337                    
V 22  -2653.587106   2118.211765  31888.619740     -0.073497                    
P 23 -14635.483924 -15363.833876  16090.259838     69.242519                    
V 23  19983.867828   3967.375818  21801.362601      0.052874                    
P 24  13722.859160 -21791.409007  -5885.833232   -321.124557                    
V 24   7592.852699  -2747.372487  30215.784232     -0.106106                    
P 25  -6902.890713 -16740.550748 -19832.662157    468.064047                    
V 25  23770.988805   5821.298743 -13137.586443      0.020034                    
P 26 -26286.936010  -3431.260941   3472.465258    228.195261                    
V 26  -3656.807018  -4296.070639 -30482.408797     -0.018624                    
P 27 -14033.748810   5528.465267  21583.261032    -40.455105                    
V 27  -6775.616667 -27200.611667   2934.393123     -0.062381                    
P 28 -17425.868066  -2275.288913 -19938.284866    -10.647362                    
V 28  17123.901651 -18608.262350 -12856.486086     -0.053303                    
P 29  -3899.666251 -26214.865223    -17.663662   -609.345895                    
V 29   2428.029595   -395.339918 -32135.040361     -0.003511                    
P 30  13000.719434   9384.076809  21318.953511   -487.239571                    
V 30 -19590.698310  18375.053262   3617.821124      0.034375                    
P 31 -22047.159390   6437.890827 -13880.450058   -223.454198                    
V 31  11519.237591 -12875.123014 -24187.852406     -0.005158                    
P 32 -15317.588112 -13676.993828 -16774.670051   -558.849773                    
V 32  -3311.481920 -21382.990017  20041.320070     -0.060124                    
EOF
